[
  {
    "OBJECT_NAME": "STARLINK-35710",
    "OBJECT_ID": "25244G",
    "EPOCH": "2025-11-11T06:00:02.000160",
    "MEAN_MOTION": 15.72057905,
    "ECCENTRICITY": 5.85e-05,
    "INCLINATION": 53.1585,
    "RA_OF_ASC_NODE": 65.488,
    "ARG_OF_PERICENTER": 59.8354,
    "MEAN_ANOMALY": 148.9621,
    "EPHEMERIS_TYPE": 0,
    "CLASSIFICATION_TYPE": "U",
    "NORAD_CAT_ID": 66212,
    "ELEMENT_SET_NO": 999,
    "REV_AT_EPOCH": 328,
    "BSTAR": 0.0,
    "MEAN_MOTION_DOT": -0.01728549,
    "MEAN_MOTION_DDOT": 0.0,
    "TLE_LINE1": "1 66212U 25244G   25315.25002315 -.01728549  00000+0 -14682-1 0  9997",
    "TLE_LINE2": "2 66212  53.1585  65.4880 0000585  59.8354 148.9621 15.72057905  3284",
    "COMMENT": "Grouped by shell and plane from TLE"
  },
  {
    "OBJECT_NAME": "STARLINK-34204",
    "OBJECT_ID": "25244H",
    "EPOCH": "2025-11-11T06:00:02.000160",
    "MEAN_MOTION": 15.72228106,
    "ECCENTRICITY": 0.0001261,
    "INCLINATION": 53.1587,
    "RA_OF_ASC_NODE": 65.4925,
    "ARG_OF_PERICENTER": 89.9476,
    "MEAN_ANOMALY": 116.7811,
    "EPHEMERIS_TYPE": 0,
    "CLASSIFICATION_TYPE": "U",
    "NORAD_CAT_ID": 66213,
    "ELEMENT_SET_NO": 999,
    "REV_AT_EPOCH": 347,
    "BSTAR": 0.0,
    "MEAN_MOTION_DOT": -0.01872782,
    "MEAN_MOTION_DDOT": 0.0,
    "TLE_LINE1": "1 66213U 25244H   25315.25002315 -.01872782  00000+0 -15972-1 0  9990",
    "TLE_LINE2": "2 66213  53.1587  65.4925 0001261  89.9476 116.7811 15.72228106  3476",
    "COMMENT": "Grouped by shell and plane from TLE"
  },
  {
    "OBJECT_NAME": "STARLINK-35714",
    "OBJECT_ID": "25244J",
    "EPOCH": "2025-11-11T06:00:02.000160",
    "MEAN_MOTION": 15.7222849,
    "ECCENTRICITY": 0.0001058,
    "INCLINATION": 53.1585,
    "RA_OF_ASC_NODE": 65.472,
    "ARG_OF_PERICENTER": 79.5994,
    "MEAN_ANOMALY": 136.7128,
    "EPHEMERIS_TYPE": 0,
    "CLASSIFICATION_TYPE": "U",
    "NORAD_CAT_ID": 66214,
    "ELEMENT_SET_NO": 999,
    "REV_AT_EPOCH": 315,
    "BSTAR": 0.0,
    "MEAN_MOTION_DOT": -0.01874296,
    "MEAN_MOTION_DDOT": 0.0,
    "TLE_LINE1": "1 66214U 25244J   25315.25002315 -.01874296  00000+0 -15989-1 0  9991",
    "TLE_LINE2": "2 66214  53.1585  65.4720 0001058  79.5994 136.7128 15.72228490  3156",
    "COMMENT": "Grouped by shell and plane from TLE"
  },
  {
    "OBJECT_NAME": "STARLINK-35712",
    "OBJECT_ID": "25244K",
    "EPOCH": "2025-11-11T06:00:02.000160",
    "MEAN_MOTION": 15.72224809,
    "ECCENTRICITY": 9.29e-05,
    "INCLINATION": 53.1582,
    "RA_OF_ASC_NODE": 65.4645,
    "ARG_OF_PERICENTER": 85.532,
    "MEAN_ANOMALY": 134.6154,
    "EPHEMERIS_TYPE": 0,
    "CLASSIFICATION_TYPE": "U",
    "NORAD_CAT_ID": 66215,
    "ELEMENT_SET_NO": 999,
    "REV_AT_EPOCH": 315,
    "BSTAR": 0.0,
    "MEAN_MOTION_DOT": -0.01867253,
    "MEAN_MOTION_DDOT": 0.0,
    "TLE_LINE1": "1 66215U 25244K   25315.25002315 -.01867253  00000+0 -15923-1 0  9995",
    "TLE_LINE2": "2 66215  53.1582  65.4645 0000929  85.5320 134.6154 15.72224809  3152",
    "COMMENT": "Grouped by shell and plane from TLE"
  },
  {
    "OBJECT_NAME": "STARLINK-35709",
    "OBJECT_ID": "25244L",
    "EPOCH": "2025-11-11T06:00:02.000160",
    "MEAN_MOTION": 15.72234536,
    "ECCENTRICITY": 9.56e-05,
    "INCLINATION": 53.1585,
    "RA_OF_ASC_NODE": 65.4845,
    "ARG_OF_PERICENTER": 77.2428,
    "MEAN_ANOMALY": 133.3156,
    "EPHEMERIS_TYPE": 0,
    "CLASSIFICATION_TYPE": "U",
    "NORAD_CAT_ID": 66216,
    "ELEMENT_SET_NO": 999,
    "REV_AT_EPOCH": 315,
    "BSTAR": 0.0,
    "MEAN_MOTION_DOT": -0.01879958,
    "MEAN_MOTION_DDOT": 0.0,
    "TLE_LINE1": "1 66216U 25244L   25315.25002315 -.01879958  00000+0 -16041-1 0  9993",
    "TLE_LINE2": "2 66216  53.1585  65.4845 0000956  77.2428 133.3156 15.72234536  3151",
    "COMMENT": "Grouped by shell and plane from TLE"
  },
  {
    "OBJECT_NAME": "STARLINK-35700",
    "OBJECT_ID": "25244M",
    "EPOCH": "2025-11-11T06:00:02.000160",
    "MEAN_MOTION": 15.72236433,
    "ECCENTRICITY": 0.0001151,
    "INCLINATION": 53.1585,
    "RA_OF_ASC_NODE": 65.4806,
    "ARG_OF_PERICENTER": 91.6703,
    "MEAN_ANOMALY": 120.8047,
    "EPHEMERIS_TYPE": 0,
    "CLASSIFICATION_TYPE": "U",
    "NORAD_CAT_ID": 66217,
    "ELEMENT_SET_NO": 999,
    "REV_AT_EPOCH": 315,
    "BSTAR": 0.0,
    "MEAN_MOTION_DOT": -0.01882176,
    "MEAN_MOTION_DDOT": 0.0,
    "TLE_LINE1": "1 66217U 25244M   25315.25002315 -.01882176  00000+0 -16060-1 0  9991",
    "TLE_LINE2": "2 66217  53.1585  65.4806 0001151  91.6703 120.8047 15.72236433  3151",
    "COMMENT": "Grouped by shell and plane from TLE"
  },
  {
    "OBJECT_NAME": "STARLINK-35722",
    "OBJECT_ID": "25244N",
    "EPOCH": "2025-11-11T06:00:02.000160",
    "MEAN_MOTION": 15.72227823,
    "ECCENTRICITY": 0.0001362,
    "INCLINATION": 53.1584,
    "RA_OF_ASC_NODE": 65.4766,
    "ARG_OF_PERICENTER": 89.2578,
    "MEAN_ANOMALY": 125.1378,
    "EPHEMERIS_TYPE": 0,
    "CLASSIFICATION_TYPE": "U",
    "NORAD_CAT_ID": 66218,
    "ELEMENT_SET_NO": 999,
    "REV_AT_EPOCH": 315,
    "BSTAR": 0.0,
    "MEAN_MOTION_DOT": -0.01872399,
    "MEAN_MOTION_DDOT": 0.0,
    "TLE_LINE1": "1 66218U 25244N   25315.25002315 -.01872399  00000+0 -15968-1 0  9994",
    "TLE_LINE2": "2 66218  53.1584  65.4766 0001362  89.2578 125.1378 15.72227823  3151",
    "COMMENT": "Grouped by shell and plane from TLE"
  },
  {
    "OBJECT_NAME": "STARLINK-35737",
    "OBJECT_ID": "25244P",
    "EPOCH": "2025-11-11T06:00:02.000160",
    "MEAN_MOTION": 15.72234105,
    "ECCENTRICITY": 0.0001132,
    "INCLINATION": 53.1585,
    "RA_OF_ASC_NODE": 65.4688,
    "ARG_OF_PERICENTER": 97.0824,
    "MEAN_ANOMALY": 121.1437,
    "EPHEMERIS_TYPE": 0,
    "CLASSIFICATION_TYPE": "U",
    "NORAD_CAT_ID": 66219,
    "ELEMENT_SET_NO": 999,
    "REV_AT_EPOCH": 331,
    "BSTAR": 0.0,
    "MEAN_MOTION_DOT": -0.01878315,
    "MEAN_MOTION_DDOT": 0.0,
    "TLE_LINE1": "1 66219U 25244P   25315.25002315 -.01878315  00000+0 -16024-1 0  9993",
    "TLE_LINE2": "2 66219  53.1585  65.4688 0001132  97.0824 121.1437 15.72234105  3313",
    "COMMENT": "Grouped by shell and plane from TLE"
  },
  {
    "OBJECT_NAME": "STARLINK-35677",
    "OBJECT_ID": "25244Q",
    "EPOCH": "2025-11-11T06:00:02.000160",
    "MEAN_MOTION": 15.72227909,
    "ECCENTRICITY": 0.0001059,
    "INCLINATION": 53.1584,
    "RA_OF_ASC_NODE": 65.4609,
    "ARG_OF_PERICENTER": 98.6516,
    "MEAN_ANOMALY": 123.4119,
    "EPHEMERIS_TYPE": 0,
    "CLASSIFICATION_TYPE": "U",
    "NORAD_CAT_ID": 66220,
    "ELEMENT_SET_NO": 999,
    "REV_AT_EPOCH": 315,
    "BSTAR": 0.0,
    "MEAN_MOTION_DOT": -0.01871537,
    "MEAN_MOTION_DDOT": 0.0,
    "TLE_LINE1": "1 66220U 25244Q   25315.25002315 -.01871537  00000+0 -15962-1 0  9994",
    "TLE_LINE2": "2 66220  53.1584  65.4609 0001059  98.6516 123.4119 15.72227909  3158",
    "COMMENT": "Grouped by shell and plane from TLE"
  },
  {
    "OBJECT_NAME": "STARLINK-35704",
    "OBJECT_ID": "25244R",
    "EPOCH": "2025-11-11T06:00:02.000160",
    "MEAN_MOTION": 15.72227251,
    "ECCENTRICITY": 0.0001281,
    "INCLINATION": 53.1585,
    "RA_OF_ASC_NODE": 65.4565,
    "ARG_OF_PERICENTER": 102.5069,
    "MEAN_ANOMALY": 121.4744,
    "EPHEMERIS_TYPE": 0,
    "CLASSIFICATION_TYPE": "U",
    "NORAD_CAT_ID": 66221,
    "ELEMENT_SET_NO": 999,
    "REV_AT_EPOCH": 315,
    "BSTAR": 0.0,
    "MEAN_MOTION_DOT": -0.01871052,
    "MEAN_MOTION_DDOT": 0.0,
    "TLE_LINE1": "1 66221U 25244R   25315.25002315 -.01871052  00000+0 -15956-1 0  9990",
    "TLE_LINE2": "2 66221  53.1585  65.4565 0001281 102.5069 121.4744 15.72227251  3158",
    "COMMENT": "Grouped by shell and plane from TLE"
  },
  {
    "OBJECT_NAME": "STARLINK-35666",
    "OBJECT_ID": "25244S",
    "EPOCH": "2025-11-11T06:00:02.000160",
    "MEAN_MOTION": 15.72228693,
    "ECCENTRICITY": 0.0001082,
    "INCLINATION": 53.1584,
    "RA_OF_ASC_NODE": 65.4486,
    "ARG_OF_PERICENTER": 99.2037,
    "MEAN_ANOMALY": 128.6044,
    "EPHEMERIS_TYPE": 0,
    "CLASSIFICATION_TYPE": "U",
    "NORAD_CAT_ID": 66222,
    "ELEMENT_SET_NO": 999,
    "REV_AT_EPOCH": 326,
    "BSTAR": 0.0,
    "MEAN_MOTION_DOT": -0.01867133,
    "MEAN_MOTION_DDOT": 0.0,
    "TLE_LINE1": "1 66222U 25244S   25315.25002315 -.01867133  00000+0 -15918-1 0  9994",
    "TLE_LINE2": "2 66222  53.1584  65.4486 0001082  99.2037 128.6044 15.72228693  3261",
    "COMMENT": "Grouped by shell and plane from TLE"
  },
  {
    "OBJECT_NAME": "STARLINK-35664",
    "OBJECT_ID": "25244T",
    "EPOCH": "2025-11-11T06:00:02.000160",
    "MEAN_MOTION": 15.72222298,
    "ECCENTRICITY": 0.0001237,
    "INCLINATION": 53.1586,
    "RA_OF_ASC_NODE": 65.453,
    "ARG_OF_PERICENTER": 88.1447,
    "MEAN_ANOMALY": 137.7583,
    "EPHEMERIS_TYPE": 0,
    "CLASSIFICATION_TYPE": "U",
    "NORAD_CAT_ID": 66223,
    "ELEMENT_SET_NO": 999,
    "REV_AT_EPOCH": 326,
    "BSTAR": 0.0,
    "MEAN_MOTION_DOT": -0.01869313,
    "MEAN_MOTION_DDOT": 0.0,
    "TLE_LINE1": "1 66223U 25244T   25315.25002315 -.01869313  00000+0 -15942-1 0  9994",
    "TLE_LINE2": "2 66223  53.1586  65.4530 0001237  88.1447 137.7583 15.72222298  3262",
    "COMMENT": "Grouped by shell and plane from TLE"
  },
  {
    "OBJECT_NAME": "STARLINK-35733",
    "OBJECT_ID": "25244U",
    "EPOCH": "2025-11-11T06:00:02.000160",
    "MEAN_MOTION": 15.72220572,
    "ECCENTRICITY": 0.0001236,
    "INCLINATION": 53.1585,
    "RA_OF_ASC_NODE": 65.4406,
    "ARG_OF_PERICENTER": 90.3886,
    "MEAN_ANOMALY": 141.2677,
    "EPHEMERIS_TYPE": 0,
    "CLASSIFICATION_TYPE": "U",
    "NORAD_CAT_ID": 66224,
    "ELEMENT_SET_NO": 999,
    "REV_AT_EPOCH": 315,
    "BSTAR": 0.0,
    "MEAN_MOTION_DOT": -0.01868847,
    "MEAN_MOTION_DDOT": 0.0,
    "TLE_LINE1": "1 66224U 25244U   25315.25002315 -.01868847  00000+0 -15939-1 0  9992",
    "TLE_LINE2": "2 66224  53.1585  65.4406 0001236  90.3886 141.2677 15.72220572  3150",
    "COMMENT": "Grouped by shell and plane from TLE"
  }
]